start=new Date('2022-07-07T00:00:00.000Z').valueOf();
sats=[{"CENTER_NAME":"EARTH","SEMIMAJOR_AXIS":"6925.354","RCS_SIZE":"LARGE","TLE_LINE2":"2 45085  53.0550 153.1555 0001824  68.3800 291.7383 15.06398301134688","OBJECT_ID":"2020-006AT","TIME_SYSTEM":"UTC","ARG_OF_PERICENTER":"68.3800","MEAN_MOTION_DOT":"-0.00000487","BSTAR":"-0.00001376800000","DECAY_DATE":null,"MEAN_MOTION_DDOT":"0.0000000000000","EPOCH":"2022-07-06T05:29:22.005024","OBJECT_TYPE":"PAYLOAD","COUNTRY_CODE":"US","APOAPSIS":"548.482","ELEMENT_SET_NO":"999","REV_AT_EPOCH":"13468","MEAN_ELEMENT_THEORY":"SGP4","FILE":"3508782","PERIOD":"95.592","CLASSIFICATION_TYPE":"U","NORAD_CAT_ID":"45085","LAUNCH_DATE":"2020-01-29","OBJECT_NAME":"STARLINK-1179","EPHEMERIS_TYPE":"0","SITE":"AFETR","INCLINATION":"53.0550","TLE_LINE1":"1 45085U 20006AT  22187.22872691 -.00000487  00000-0 -13768-4 0  9997","PERIAPSIS":"545.956","GP_ID":"207535863","MEAN_MOTION":"15.06398301","RA_OF_ASC_NODE":"153.1555","REF_FRAME":"TEME","ECCENTRICITY":"0.00018240","MEAN_ANOMALY":"291.7383"},{"COUNTRY_CODE":"US","FILE":"3508782","CLASSIFICATION_TYPE":"U","PERIOD":"94.989","NORAD_CAT_ID":"45086","APOAPSIS":"519.913","ELEMENT_SET_NO":"999","REV_AT_EPOCH":"13477","MEAN_ELEMENT_THEORY":"SGP4","EPHEMERIS_TYPE":"0","LAUNCH_DATE":"2020-01-29","OBJECT_NAME":"STARLINK-1181","INCLINATION":"52.9996","SITE":"AFETR","TLE_LINE1":"1 45086U 20006AU  22187.56076913  .00012671  00000-0  66718-3 0  9996","GP_ID":"207536112","PERIAPSIS":"516.156","REF_FRAME":"TEME","MEAN_MOTION":"15.15971039","RA_OF_ASC_NODE":"140.2143","ECCENTRICITY":"0.00027240","MEAN_ANOMALY":"303.1755","SEMIMAJOR_AXIS":"6896.169","RCS_SIZE":"LARGE","CENTER_NAME":"EARTH","ARG_OF_PERICENTER":"56.9499","TIME_SYSTEM":"UTC","TLE_LINE2":"2 45086  52.9996 140.2143 0002724  56.9499 303.1755 15.15971039134774","OBJECT_ID":"2020-006AU","BSTAR":"0.00066718000000","MEAN_MOTION_DOT":"0.00012671","DECAY_DATE":null,"MEAN_MOTION_DDOT":"0.0000000000000","OBJECT_TYPE":"PAYLOAD","EPOCH":"2022-07-06T13:27:30.452832"},{"TIME_SYSTEM":"UTC","ARG_OF_PERICENTER":"74.2329","OBJECT_ID":"2020-006AV","TLE_LINE2":"2 45087  53.0546 152.3261 0001670  74.2329 285.8844 15.06404672134710","SEMIMAJOR_AXIS":"6925.334","RCS_SIZE":"LARGE","CENTER_NAME":"EARTH","BSTAR":"0.00003301800000","MEAN_MOTION_DOT":"0.00000210","DECAY_DATE":null,"OBJECT_TYPE":"PAYLOAD","EPOCH":"2022-07-06T09:54:45.754848","MEAN_MOTION_DDOT":"0.0000000000000","CLASSIFICATION_TYPE":"U","PERIOD":"95.592","NORAD_CAT_ID":"45087","FILE":"3508782","REV_AT_EPOCH":"13471","MEAN_ELEMENT_THEORY":"SGP4","APOAPSIS":"548.356","ELEMENT_SET_NO":"999","COUNTRY_CODE":"US","INCLINATION":"53.0546","SITE":"AFETR","EPHEMERIS_TYPE":"0","OBJECT_NAME":"STARLINK-1185","LAUNCH_DATE":"2020-01-29","GP_ID":"207537363","PERIAPSIS":"546.043","TLE_LINE1":"1 45087U 20006AV  22187.41302957  .00000210  00000-0  33018-4 0  9995","MEAN_ANOMALY":"285.8844","ECCENTRICITY":"0.00016700","REF_FRAME":"TEME","MEAN_MOTION":"15.06404672","RA_OF_ASC_NODE":"152.3261"},{"MEAN_MOTION_DDOT":"0.0000000000000","EPOCH":"2022-07-06T07:15:31.102848","OBJECT_TYPE":"PAYLOAD","DECAY_DATE":null,"BSTAR":"-0.00002894600000","MEAN_MOTION_DOT":"-0.00000713","CENTER_NAME":"EARTH","SEMIMAJOR_AXIS":"6925.353","RCS_SIZE":"LARGE","OBJECT_ID":"2020-006AW","TLE_LINE2":"2 45088  53.0533 152.8242 0002012  74.5962 285.5249 15.06398683134695","TIME_SYSTEM":"UTC","ARG_OF_PERICENTER":"74.5962","RA_OF_ASC_NODE":"152.8242","MEAN_MOTION":"15.06398683","REF_FRAME":"TEME","MEAN_ANOMALY":"285.5249","ECCENTRICITY":"0.00020120","TLE_LINE1":"1 45088U 20006AW  22187.30244332 -.00000713  00000-0 -28946-4 0  9990","PERIAPSIS":"545.824","GP_ID":"207537614","OBJECT_NAME":"STARLINK-1183","LAUNCH_DATE":"2020-01-29","EPHEMERIS_TYPE":"0","SITE":"AFETR","INCLINATION":"53.0533","COUNTRY_CODE":"US","MEAN_ELEMENT_THEORY":"SGP4","REV_AT_EPOCH":"13469","APOAPSIS":"548.611","ELEMENT_SET_NO":"999","PERIOD":"95.592","CLASSIFICATION_TYPE":"U","NORAD_CAT_ID":"45088","FILE":"3508782"},{"EPHEMERIS_TYPE":"0","LAUNCH_DATE":"2020-01-29","OBJECT_NAME":"STARLINK-1136","INCLINATION":"53.0541","SITE":"AFETR","COUNTRY_CODE":"US","FILE":"3508782","PERIOD":"95.592","CLASSIFICATION_TYPE":"U","NORAD_CAT_ID":"45089","APOAPSIS":"548.504","ELEMENT_SET_NO":"999","REV_AT_EPOCH":"13470","MEAN_ELEMENT_THEORY":"SGP4","REF_FRAME":"TEME","MEAN_MOTION":"15.06401803","RA_OF_ASC_NODE":"152.8848","ECCENTRICITY":"0.00018710","MEAN_ANOMALY":"291.7905","TLE_LINE1":"1 45089U 20006AX  22187.30982732 -.00000788  00000-0 -33984-4 0  9994","GP_ID":"207536362","PERIAPSIS":"545.912","BSTAR":"-0.00003398400000","MEAN_MOTION_DOT":"-0.00000788","SEMIMAJOR_AXIS":"6925.343","RCS_SIZE":"LARGE","CENTER_NAME":"EARTH","ARG_OF_PERICENTER":"68.3283","TIME_SYSTEM":"UTC","TLE_LINE2":"2 45089  53.0541 152.8848 0001871  68.3283 291.7905 15.06401803134705","OBJECT_ID":"2020-006AX","MEAN_MOTION_DDOT":"0.0000000000000","EPOCH":"2022-07-06T07:26:09.080448","OBJECT_TYPE":"PAYLOAD","DECAY_DATE":null},{"DECAY_DATE":null,"MEAN_MOTION_DDOT":"0.0000000000000","OBJECT_TYPE":"PAYLOAD","EPOCH":"2022-07-06T05:17:23.157888","RCS_SIZE":"LARGE","SEMIMAJOR_AXIS":"6925.378","CENTER_NAME":"EARTH","ARG_OF_PERICENTER":"72.1489","TIME_SYSTEM":"UTC","OBJECT_ID":"2020-006AY","TLE_LINE2":"2 45090  53.0545 153.1910 0001641  72.1489 287.9678 15.06390335134689","BSTAR":"-0.00001615900000","MEAN_MOTION_DOT":"-0.00000522","TLE_LINE1":"1 45090U 20006AY  22187.22040692 -.00000522  00000-0 -16159-4 0  9998","GP_ID":"207536612","PERIAPSIS":"546.107","REF_FRAME":"TEME","MEAN_MOTION":"15.06390335","RA_OF_ASC_NODE":"153.1910","ECCENTRICITY":"0.00016410","MEAN_ANOMALY":"287.9678","COUNTRY_CODE":"US","PERIOD":"95.593","NORAD_CAT_ID":"45090","CLASSIFICATION_TYPE":"U","FILE":"3508782","REV_AT_EPOCH":"13468","MEAN_ELEMENT_THEORY":"SGP4","APOAPSIS":"548.380","ELEMENT_SET_NO":"999","EPHEMERIS_TYPE":"0","OBJECT_NAME":"STARLINK-1176","LAUNCH_DATE":"2020-01-29","INCLINATION":"53.0545","SITE":"AFETR"},{"EPHEMERIS_TYPE":"0","LAUNCH_DATE":"2020-01-29","OBJECT_NAME":"STARLINK-1137","INCLINATION":"53.0548","SITE":"AFETR","COUNTRY_CODE":"US","FILE":"3508782","CLASSIFICATION_TYPE":"U","PERIOD":"95.593","NORAD_CAT_ID":"45092","APOAPSIS":"548.582","ELEMENT_SET_NO":"999","REV_AT_EPOCH":"13469","MEAN_ELEMENT_THEORY":"SGP4","REF_FRAME":"TEME","RA_OF_ASC_NODE":"152.7275","MEAN_MOTION":"15.06391866","MEAN_ANOMALY":"292.4607","ECCENTRICITY":"0.00019400","TLE_LINE1":"1 45092U 20006BA  22187.32824572 -.00000518  00000-0 -15874-4 0  9996","GP_ID":"207536864","PERIAPSIS":"545.895","MEAN_MOTION_DOT":"-0.00000518","BSTAR":"-0.00001587400000","RCS_SIZE":"LARGE","SEMIMAJOR_AXIS":"6925.373","CENTER_NAME":"EARTH","TIME_SYSTEM":"UTC","ARG_OF_PERICENTER":"67.6588","TLE_LINE2":"2 45092  53.0548 152.7275 0001940  67.6588 292.4607 15.06391866134698","OBJECT_ID":"2020-006BA","MEAN_MOTION_DDOT":"0.0000000000000","EPOCH":"2022-07-06T07:52:40.430208","OBJECT_TYPE":"PAYLOAD","DECAY_DATE":null},{"TLE_LINE1":"1 45093U 20006BB  22187.32455601 -.00000137  00000-0  97038-5 0  9999","GP_ID":"207537115","PERIAPSIS":"546.068","REF_FRAME":"TEME","RA_OF_ASC_NODE":"152.7382","MEAN_MOTION":"15.06388845","ECCENTRICITY":"0.00017030","MEAN_ANOMALY":"291.5970","COUNTRY_CODE":"US","CLASSIFICATION_TYPE":"U","PERIOD":"95.593","NORAD_CAT_ID":"45093","FILE":"3508782","REV_AT_EPOCH":"13469","MEAN_ELEMENT_THEORY":"SGP4","ELEMENT_SET_NO":"999","APOAPSIS":"548.427","EPHEMERIS_TYPE":"0","OBJECT_NAME":"STARLINK-1142","LAUNCH_DATE":"2020-01-29","INCLINATION":"53.0548","SITE":"AFETR","DECAY_DATE":null,"MEAN_MOTION_DDOT":"0.0000000000000","OBJECT_TYPE":"PAYLOAD","EPOCH":"2022-07-06T07:47:21.639264","SEMIMAJOR_AXIS":"6925.383","RCS_SIZE":"LARGE","CENTER_NAME":"EARTH","ARG_OF_PERICENTER":"68.5200","TIME_SYSTEM":"UTC","OBJECT_ID":"2020-006BB","TLE_LINE2":"2 45093  53.0548 152.7382 0001703  68.5200 291.5970 15.06388845134692","BSTAR":"0.00000970380000","MEAN_MOTION_DOT":"-0.00000137"},{"MEAN_MOTION_DOT":"0.00001001","BSTAR":"0.00008612500000","TIME_SYSTEM":"UTC","ARG_OF_PERICENTER":"65.2051","TLE_LINE2":"2 45094  53.0541 153.5515 0001660  65.2051 294.9110 15.06399080134677","OBJECT_ID":"2020-006BC","RCS_SIZE":"LARGE","SEMIMAJOR_AXIS":"6925.351","CENTER_NAME":"EARTH","EPOCH":"2022-07-06T03:20:36.331296","OBJECT_TYPE":"PAYLOAD","MEAN_MOTION_DDOT":"0.0000000000000","DECAY_DATE":null,"INCLINATION":"53.0541","SITE":"AFETR","EPHEMERIS_TYPE":"0","LAUNCH_DATE":"2020-01-29","OBJECT_NAME":"STARLINK-1146","FILE":"3508782","NORAD_CAT_ID":"45094","PERIOD":"95.592","CLASSIFICATION_TYPE":"U","ELEMENT_SET_NO":"999","APOAPSIS":"548.366","REV_AT_EPOCH":"13467","MEAN_ELEMENT_THEORY":"SGP4","COUNTRY_CODE":"US","ECCENTRICITY":"0.00016600","MEAN_ANOMALY":"294.9110","REF_FRAME":"TEME","RA_OF_ASC_NODE":"153.5515","MEAN_MOTION":"15.06399080","GP_ID":"207535864","PERIAPSIS":"546.067","TLE_LINE1":"1 45094U 20006BC  22187.13930939  .00001001  00000-0  86125-4 0  9995"},{"MEAN_MOTION_DDOT":"0.0000000000000","EPOCH":"2022-07-06T08:12:32.568768","OBJECT_TYPE":"PAYLOAD","DECAY_DATE":null,"MEAN_MOTION_DOT":"-0.00000539","BSTAR":"-0.00001730300000","SEMIMAJOR_AXIS":"6925.386","RCS_SIZE":"LARGE","CENTER_NAME":"EARTH","ARG_OF_PERICENTER":"58.0455","TIME_SYSTEM":"UTC","TLE_LINE2":"2 45095  53.0529 152.6335 0002070  58.0455 302.0735 15.06387728134702","OBJECT_ID":"2020-006BD","REF_FRAME":"TEME","MEAN_MOTION":"15.06387728","RA_OF_ASC_NODE":"152.6335","ECCENTRICITY":"0.00020700","MEAN_ANOMALY":"302.0735","TLE_LINE1":"1 45095U 20006BD  22187.34204362 -.00000539  00000-0 -17303-4 0  9992","GP_ID":"207536113","PERIAPSIS":"545.818","EPHEMERIS_TYPE":"0","LAUNCH_DATE":"2020-01-29","OBJECT_NAME":"STARLINK-1147","INCLINATION":"53.0529","SITE":"AFETR","COUNTRY_CODE":"US","FILE":"3508782","NORAD_CAT_ID":"45095","PERIOD":"95.593","CLASSIFICATION_TYPE":"U","ELEMENT_SET_NO":"999","APOAPSIS":"548.685","REV_AT_EPOCH":"13470","MEAN_ELEMENT_THEORY":"SGP4"}];
